{"type": "FeatureCollection", "features": [ {"type": "Feature", "properties": {"norad_id": 31535, "name": "FENGYUN 1C DEB", "group": "fengyun-1c-debris", "lat": -14.508652634608403, "lon": 24.81495358122062, "alt_km": 774.3389954553477, "timestamp": "2025-12-23T20:42:37.358960+00:00", "meta": {"OBJECT_NAME": "FENGYUN 1C DEB", "OBJECT_ID": "1999-025BYA", "EPOCH": "2025-12-08T20:01:31.264032", "MEAN_MOTION": 14.28309987, "ECCENTRICITY": 0.00876599, "INCLINATION": 98.0348, "RA_OF_ASC_NODE": 193.0693, "ARG_OF_PERICENTER": 174.5726, "MEAN_ANOMALY": 185.6428, "EPHEMERIS_TYPE": 0, "CLASSIFICATION_TYPE": "U", "NORAD_CAT_ID": 31535, "ELEMENT_SET_NO": 999, "REV_AT_EPOCH": 71875, "BSTAR": 0.0012494375, "MEAN_MOTION_DOT": 3.212e-05, "MEAN_MOTION_DDOT": 0}, "tle": {"line1": "1 31535U 99025BYA 25342.83438963  .00003212  00000+0  12494-2 0  9991", "line2": "2 31535  98.0348 193.0693 0087659 174.5726 185.6428 14.28309987718752"}}, "geometry": {"type": "Point", "coordinates": [24.81495358122062, -14.508652634608403]}}, {"type": "Feature", "properties": {"norad_id": 31536, "name": "FENGYUN 1C DEB", "group": "fengyun-1c-debris", "lat": -1.7511346269175112, "lon": -94.66198416760886, "alt_km": 787.4755577177166, "timestamp": "2025-12-23T20:42:37.358970+00:00", "meta": {"OBJECT_NAME": "FENGYUN 1C DEB", "OBJECT_ID": "1999-025BYB", "EPOCH": "2025-12-22T16:38:59.021952", "MEAN_MOTION": 14.54434146, "ECCENTRICITY": 0.02945648, "INCLINATION": 98.2371, "RA_OF_ASC_NODE": 263.9312, "ARG_OF_PERICENTER": 114.0299, "MEAN_ANOMALY": 249.2024, "EPHEMERIS_TYPE": 0, "CLASSIFICATION_TYPE": "U", "NORAD_CAT_ID": 31536, "ELEMENT_SET_NO": 999, "REV_AT_EPOCH": 96402, "BSTAR": 0.00085666971, "MEAN_MOTION_DOT": 6.488e-05, "MEAN_MOTION_DDOT": 0}, "tle": {"line1": "1 31536U 99025BYB 25356.69373868  .00006488  00000+0  85667-3 0  9994", "line2": "2 31536  98.2371 263.9312 0294564 114.0299 249.2024 14.54434146964022"}}, "geometry": {"type": "Point", "coordinates": [-94.66198416760886, -1.7511346269175112]}}, {"type": "Feature", "properties": {"norad_id": 31537, "name": "FENGYUN 1C DEB", "group": "fengyun-1c-debris", "lat": 79.30915379655053, "lon": 31.758934668857226, "alt_km": 1054.954174187108, "timestamp": "2025-12-23T20:42:37.358980+00:00", "meta": {"OBJECT_NAME": "FENGYUN 1C DEB", "OBJECT_ID": "1999-025BYC", "EPOCH": "2025-12-22T15:30:50.364864", "MEAN_MOTION": 14.20468164, "ECCENTRICITY": 0.03487105, "INCLINATION": 99.2934, "RA_OF_ASC_NODE": 150.3269, "ARG_OF_PERICENTER": 296.2481, "MEAN_ANOMALY": 60.3246, "EPHEMERIS_TYPE": 0, "CLASSIFICATION_TYPE": "U", "NORAD_CAT_ID": 31537, "ELEMENT_SET_NO": 999, "REV_AT_EPOCH": 93422, "BSTAR": 0.0026080635, "MEAN_MOTION_DOT": 0.00010318, "MEAN_MOTION_DDOT": 0}, "tle": {"line1": "1 31537U 99025BYC 25356.64641626  .00010318  00000+0  26081-2 0  9991", "line2": "2 31537  99.2934 150.3269 0348710 296.2481  60.3246 14.20468164934225"}}, "geometry": {"type": "Point", "coordinates": [31.758934668857226, 79.30915379655053]}}, {"type": "Feature", "properties": {"norad_id": 31540, "name": "FENGYUN 1C DEB", "group": "fengyun-1c-debris", "lat": 78.68714843359373, "lon": 105.5456735751121, "alt_km": 792.3636873917922, "timestamp": "2025-12-23T20:42:37.358991+00:00", "meta": {"OBJECT_NAME": "FENGYUN 1C DEB", "OBJECT_ID": "1999-025BYF", "EPOCH": "2025-12-22T16:28:01.184448", "MEAN_MOTION": 14.65491949, "ECCENTRICITY": 0.01765622, "INCLINATION": 99.0576, "RA_OF_ASC_NODE": 157.1311, "ARG_OF_PERICENTER": 270.4591, "MEAN_ANOMALY": 87.638, "EPHEMERIS_TYPE": 0, "CLASSIFICATION_TYPE": "U", "NORAD_CAT_ID": 31540, "ELEMENT_SET_NO": 999, "REV_AT_EPOCH": 98447, "BSTAR": 0.00095426634, "MEAN_MOTION_DOT": 6.446e-05, "MEAN_MOTION_DDOT": 0}, "tle": {"line1": "1 31540U 99025BYF 25356.68612482  .00006446  00000+0  95427-3 0  9995", "line2": "2 31540  99.0576 157.1311 0176562 270.4591  87.6380 14.65491949984471"}}, "geometry": {"type": "Point", "coordinates": [105.5456735751121, 78.68714843359373]}}, {"type": "Feature", "properties": {"norad_id": 31541, "name": "FENGYUN 1C DEB", "group": "fengyun-1c-debris", "lat": 35.46724503297032, "lon": -32.17327449720366, "alt_km": 635.4741788441861, "timestamp": "2025-12-23T20:42:37.359001+00:00", "meta": {"OBJECT_NAME": "FENGYUN 1C DEB", "OBJECT_ID": "1999-025BYG", "EPOCH": "2025-12-21T20:38:38.586912", "MEAN_MOTION": 14.6896364, "ECCENTRICITY": 0.00784635, "INCLINATION": 98.98, "RA_OF_ASC_NODE": 139.1593, "ARG_OF_PERICENTER": 211.9994, "MEAN_ANOMALY": 147.6432, "EPHEMERIS_TYPE": 0, "CLASSIFICATION_TYPE": "U", "NORAD_CAT_ID": 31541, "ELEMENT_SET_NO": 999, "REV_AT_EPOCH": 98557, "BSTAR": 0.0013716905, "MEAN_MOTION_DOT": 8.366e-05, "MEAN_MOTION_DDOT": 0}, "tle": {"line1": "1 31541U 99025BYG 25355.86016883  .00008366  00000+0  13717-2 0  9992", "line2": "2 31541  98.9800 139.1593 0078463 211.9994 147.6432 14.68963640985572"}}, "geometry": {"type": "Point", "coordinates": [-32.17327449720366, 35.46724503297032]}}, {"type": "Feature", "properties": {"norad_id": 31542, "name": "FENGYUN 1C DEB", "group": "fengyun-1c-debris", "lat": -24.320270086186778, "lon": 55.75367932235824, "alt_km": 853.5373650263036, "timestamp": "2025-12-23T20:42:37.359011+00:00", "meta": {"OBJECT_NAME": "FENGYUN 1C DEB", "OBJECT_ID": "1999-025BYH", "EPOCH": "2025-12-18T22:41:09.230208", "MEAN_MOTION": 14.22828714, "ECCENTRICITY": 0.00477715, "INCLINATION": 98.7313, "RA_OF_ASC_NODE": 46.8971, "ARG_OF_PERICENTER": 189.4267, "MEAN_ANOMALY": 170.6019, "EPHEMERIS_TYPE": 0, "CLASSIFICATION_TYPE": "U", "NORAD_CAT_ID": 31542, "ELEMENT_SET_NO": 999, "REV_AT_EPOCH": 96028, "BSTAR": 0.0010244402, "MEAN_MOTION_DOT": 2.283e-05, "MEAN_MOTION_DDOT": 0}, "tle": {"line1": "1 31542U 99025BYH 25352.94524572  .00002283  00000+0  10244-2 0  9992", "line2": "2 31542  98.7313  46.8971 0047771 189.4267 170.6019 14.22828714960284"}}, "geometry": {"type": "Point", "coordinates": [55.75367932235824, -24.320270086186778]}}, {"type": "Feature", "properties": {"norad_id": 31544, "name": "FENGYUN 1C DEB", "group": "fengyun-1c-debris", "lat": 80.57505710696876, "lon": -20.430973468411796, "alt_km": 857.2214867405237, "timestamp": "2025-12-23T20:42:37.359021+00:00", "meta": {"OBJECT_NAME": "FENGYUN 1C DEB", "OBJECT_ID": "1999-025BYK", "EPOCH": "2025-12-22T10:20:35.081376", "MEAN_MOTION": 14.14359975, "ECCENTRICITY": 0.00322241, "INCLINATION": 98.8282, "RA_OF_ASC_NODE": 47.5818, "ARG_OF_PERICENTER": 240.9868, "MEAN_ANOMALY": 118.8075, "EPHEMERIS_TYPE": 0, "CLASSIFICATION_TYPE": "U", "NORAD_CAT_ID": 31544, "ELEMENT_SET_NO": 999, "REV_AT_EPOCH": 95894, "BSTAR": 0.0006556952, "MEAN_MOTION_DOT": 1.216e-05, "MEAN_MOTION_DDOT": 0}, "tle": {"line1": "1 31544U 99025BYK 25356.43096159  .00001216  00000+0  65570-3 0  9995", "line2": "2 31544  98.8282  47.5818 0032224 240.9868 118.8075 14.14359975958942"}}, "geometry": {"type": "Point", "coordinates": [-20.430973468411796, 80.57505710696876]}}, {"type": "Feature", "properties": {"norad_id": 31546, "name": "FENGYUN 1C DEB", "group": "fengyun-1c-debris", "lat": -25.240399347517023, "lon": -117.41429595527946, "alt_km": 871.6560775213002, "timestamp": "2025-12-23T20:42:37.359031+00:00", "meta": {"OBJECT_NAME": "FENGYUN 1C DEB", "OBJECT_ID": "1999-025BYM", "EPOCH": "2025-12-19T10:24:07.291008", "MEAN_MOTION": 14.13171121, "ECCENTRICITY": 0.0145952, "INCLINATION": 98.2438, "RA_OF_ASC_NODE": 62.4217, "ARG_OF_PERICENTER": 117.7512, "MEAN_ANOMALY": 243.855, "EPHEMERIS_TYPE": 0, "CLASSIFICATION_TYPE": "U", "NORAD_CAT_ID": 31546, "ELEMENT_SET_NO": 999, "REV_AT_EPOCH": 94883, "BSTAR": 0.0011276, "MEAN_MOTION_DOT": 2.297e-05, "MEAN_MOTION_DDOT": 0}, "tle": {"line1": "1 31546U 99025BYM 25353.43341772  .00002297  00000+0  11276-2 0  9991", "line2": "2 31546  98.2438  62.4217 0145952 117.7512 243.8550 14.13171121948838"}}, "geometry": {"type": "Point", "coordinates": [-117.41429595527946, -25.240399347517023]}}, {"type": "Feature", "properties": {"norad_id": 31547, "name": "FENGYUN 1C DEB", "group": "fengyun-1c-debris", "lat": 14.8473325279464, "lon": 39.55576152343006, "alt_km": 850.6058872017129, "timestamp": "2025-12-23T20:42:37.359041+00:00", "meta": {"OBJECT_NAME": "FENGYUN 1C DEB", "OBJECT_ID": "1999-025BYN", "EPOCH": "2025-12-22T09:12:21.394944", "MEAN_MOTION": 14.23186631, "ECCENTRICITY": 0.00546074, "INCLINATION": 99.0849, "RA_OF_ASC_NODE": 40.4608, "ARG_OF_PERICENTER": 225.4296, "MEAN_ANOMALY": 134.2417, "EPHEMERIS_TYPE": 0, "CLASSIFICATION_TYPE": "U", "NORAD_CAT_ID": 31547, "ELEMENT_SET_NO": 999, "REV_AT_EPOCH": 64154, "BSTAR": 0.0013255249, "MEAN_MOTION_DOT": 2.996e-05, "MEAN_MOTION_DDOT": 0}, "tle": {"line1": "1 31547U 99025BYN 25356.38358096  .00002996  00000+0  13255-2 0  9991", "line2": "2 31547  99.0849  40.4608 0054607 225.4296 134.2417 14.23186631641542"}}, "geometry": {"type": "Point", "coordinates": [39.55576152343006, 14.8473325279464]}}, {"type": "Feature", "properties": {"norad_id": 31550, "name": "FENGYUN 1C DEB", "group": "fengyun-1c-debris", "lat": 28.17112861558077, "lon": -178.50313550073471, "alt_km": 748.5399368933968, "timestamp": "2025-12-23T20:42:37.359072+00:00", "meta": {"OBJECT_NAME": "FENGYUN 1C DEB", "OBJECT_ID": "1999-025BYR", "EPOCH": "2025-12-19T17:37:00.408000", "MEAN_MOTION": 14.40245383, "ECCENTRICITY": 0.01900387, "INCLINATION": 98.3108, "RA_OF_ASC_NODE": 352.9958, "ARG_OF_PERICENTER": 251.6131, "MEAN_ANOMALY": 106.4311, "EPHEMERIS_TYPE": 0, "CLASSIFICATION_TYPE": "U", "NORAD_CAT_ID": 31550, "ELEMENT_SET_NO": 999, "REV_AT_EPOCH": 65555, "BSTAR": 0.00046139834, "MEAN_MOTION_DOT": 1.756e-05, "MEAN_MOTION_DDOT": 0}, "tle": {"line1": "1 31550U 99025BYR 25353.73403250  .00001756  00000+0  46140-3 0  9997", "line2": "2 31550  98.3108 352.9958 0190038 251.6131 106.4311 14.40245383655552"}}, "geometry": {"type": "Point", "coordinates": [-178.50313550073471, 28.17112861558077]}}]}